{
  "generated_at": "2026-07-05T08:52:16+00:00",
  "source": "celestrak.org",
  "satellite_count": 9,
  "satellites": [
    {
      "id": "terra",
      "name": "TERRA",
      "platform": "EOS",
      "sensor": "MODIS",
      "swath_km": 2330,
      "color": "#39d0d8",
      "norad": 25994,
      "tle1": "1 25994U 99068A   26185.63628185  .00000621  00000+0  13521-3 0  9995",
      "tle2": "2 25994  97.9446 234.4899 0002873 143.9918  16.3015 14.61118561412157"
    },
    {
      "id": "aqua",
      "name": "AQUA",
      "platform": "EOS",
      "sensor": "MODIS",
      "swath_km": 2330,
      "color": "#2bb673",
      "norad": 27424,
      "tle1": "1 27424U 02022A   26185.90787659  .00001061  00000+0  22067-3 0  9995",
      "tle2": "2 27424  98.4287 155.5458 0000684  88.8721 295.4034 14.62186964285867"
    },
    {
      "id": "snpp",
      "name": "SUOMI NPP",
      "platform": "JPSS",
      "sensor": "VIIRS",
      "swath_km": 3000,
      "color": "#ff8c42",
      "norad": 37849,
      "tle1": "1 37849U 11061A   26185.82106705  .00000109  00000+0  72859-4 0  9995",
      "tle2": "2 37849  98.7955 126.5769 0000616 295.0250  65.0862 14.19521234760943"
    },
    {
      "id": "noaa20",
      "name": "NOAA 20",
      "platform": "JPSS",
      "sensor": "VIIRS",
      "swath_km": 3000,
      "color": "#ffaa00",
      "norad": 43013,
      "tle1": "1 43013U 17073A   26185.83436936  .00000086  00000+0  61839-4 0  9997",
      "tle2": "2 43013  98.7772 125.1403 0000967 132.9183 227.2074 14.19515164446979"
    },
    {
      "id": "noaa21",
      "name": "NOAA 21",
      "platform": "JPSS",
      "sensor": "VIIRS",
      "swath_km": 3000,
      "color": "#ff5a3a",
      "norad": 54234,
      "tle1": "1 54234U 22150A   26185.79634938  .00000105  00000+0  70282-4 0  9997",
      "tle2": "2 54234  98.7060 124.2897 0002537 122.5556 237.5865 14.19539925189042"
    },
    {
      "id": "sentinel2a",
      "name": "SENTINEL-2A",
      "platform": "Copernicus",
      "sensor": "MSI",
      "swath_km": 290,
      "color": "#b388ff",
      "norad": 40697,
      "tle1": "1 40697U 15028A   26185.97692736  .00000019  00000+0  23709-4 0  9997",
      "tle2": "2 40697  98.5679 260.5760 0001229  96.7066 263.4257 14.30819957576279"
    },
    {
      "id": "sentinel2b",
      "name": "SENTINEL-2B",
      "platform": "Copernicus",
      "sensor": "MSI",
      "swath_km": 290,
      "color": "#9d6dff",
      "norad": 42063,
      "tle1": "1 42063U 17013A   26185.89979192 -.00000102  00000+0 -22384-4 0  9990",
      "tle2": "2 42063  98.5686 260.4242 0001214  89.8357 270.2965 14.30812154487174"
    },
    {
      "id": "sentinel3a",
      "name": "SENTINEL-3A",
      "platform": "Copernicus",
      "sensor": "OLCI",
      "swath_km": 1270,
      "color": "#7a4fff",
      "norad": 41335,
      "tle1": "1 41335U 16011A   26185.74903969  .00000171  00000+0  88708-4 0  9997",
      "tle2": "2 41335  98.6242 252.8799 0001424  93.6283 266.5060 14.26737941540562"
    },
    {
      "id": "sentinel3b",
      "name": "SENTINEL-3B",
      "platform": "Copernicus",
      "sensor": "OLCI",
      "swath_km": 1270,
      "color": "#5e3bff",
      "norad": 43437,
      "tle1": "1 43437U 18039A   26185.44165457  .00000138  00000+0  75028-4 0  9997",
      "tle2": "2 43437  98.6242 252.7259 0000891 116.8484 243.2787 14.26739817426582"
    }
  ]
}